[{"OBJECT_NAME":"TIANHUI 5A","OBJECT_ID":"2023-168A","EPOCH":"2026-03-09T14:12:49.556736","MEAN_MOTION":14.8757926,"ECCENTRICITY":0.0001554,"INCLINATION":97.8216,"RA_OF_ASC_NODE":77.385,"ARG_OF_PERICENTER":89.7041,"MEAN_ANOMALY":270.4353,"EPHEMERIS_TYPE":0,"CLASSIFICATION_TYPE":"U","NORAD_CAT_ID":58199,"ELEMENT_SET_NO":999,"REV_AT_EPOCH":12779,"BSTAR":7.8424e-5,"MEAN_MOTION_DOT":6.58e-6,"MEAN_MOTION_DDOT":0},{"OBJECT_NAME":"SL-8 DEB","OBJECT_ID":"1978-105C","EPOCH":"2026-03-09T17:24:10.488960","MEAN_MOTION":14.87909662,"ECCENTRICITY":0.00081973,"INCLINATION":74.0198,"RA_OF_ASC_NODE":317.1949,"ARG_OF_PERICENTER":182.704,"MEAN_ANOMALY":177.4098,"EPHEMERIS_TYPE":0,"CLASSIFICATION_TYPE":"U","NORAD_CAT_ID":11113,"ELEMENT_SET_NO":999,"REV_AT_EPOCH":50512,"BSTAR":0.00066990797,"MEAN_MOTION_DOT":6.108e-5,"MEAN_MOTION_DDOT":0}]
